{"type": "FeatureCollection","features": [{"type": "Feature", "geometry": {"type":"Point","coordinates":[131.2850082,-0.8835465]}, "properties": {"osm_id": 12027923596, "osm_type": "nodes", "military": null, "landuse": null, "building": null, "name": "Polresta Sorong kota", "amenity": "police"}},{"type": "Feature", "geometry": {"type":"Point","coordinates":[131.2872602,-0.879659]}, "properties": {"osm_id": 12027923597, "osm_type": "nodes", "military": null, "landuse": null, "building": null, "name": "Sat Lantas", "amenity": "police"}},{"type": "Feature", "geometry": {"type":"Point","coordinates":[131.2559493,-0.8758835]}, "properties": {"osm_id": 12027923598, "osm_type": "nodes", "military": null, "landuse": null, "building": null, "name": "Polsek Sorong Kota", "amenity": "police"}},{"type": "Feature", "geometry": {"type":"Point","coordinates":[131.2525825,-0.8705331]}, "properties": {"osm_id": 12027923600, "osm_type": "nodes", "military": null, "landuse": null, "building": null, "name": "Polsek Sorong Barat", "amenity": "police"}},{"type": "Feature", "geometry": {"type":"Point","coordinates":[131.2904985,-0.8883577]}, "properties": {"osm_id": 12027923602, "osm_type": "nodes", "military": null, "landuse": null, "building": null, "name": "Polsek Kawasan Bandara Deo", "amenity": "police"}},{"type": "Feature", "geometry": {"type":"Point","coordinates":[131.3224894,-0.9016176]}, "properties": {"osm_id": 12027923603, "osm_type": "nodes", "military": null, "landuse": null, "building": null, "name": "Polsek Sorong Timur", "amenity": "police"}},{"type": "Feature", "geometry": {"type":"Point","coordinates":[131.2483513,-0.8769864]}, "properties": {"osm_id": 5478741682, "osm_type": "nodes", "military": null, "landuse": null, "building": null, "name": "Polsek Kawasan Pelabuhan Laut Sorong", "amenity": "police"}},{"type": "Feature", "geometry": {"type":"Point","coordinates":[131.242679,-0.8763764]}, "properties": {"osm_id": 12027923599, "osm_type": "nodes", "military": null, "landuse": null, "building": null, "name": "Sat Polairud", "amenity": "police"}},{"type": "Feature", "geometry": {"type":"Point","coordinates":[131.2360073,-0.8889135]}, "properties": {"osm_id": 12027923601, "osm_type": "nodes", "military": null, "landuse": null, "building": null, "name": "Polsek Sorong Kepulauan", "amenity": "police"}},{"type": "Feature", "geometry": {"type":"Polygon","coordinates":[[[131.2174935,-0.8398255],[131.2175636,-0.8398688],[131.2175917,-0.8398232],[131.2175216,-0.8397799],[131.2174935,-0.8398255]]]}, "properties": {"osm_id": 506514990, "osm_type": "ways_poly", "military": null, "landuse": null, "building": "yes", "name": "Kantor Polisi", "amenity": "police"}},{"type": "Feature", "geometry": {"type":"Polygon","coordinates":[[[131.2573782,-0.883185],[131.2588778,-0.8838511],[131.2589245,-0.8837468],[131.2576934,-0.8832029],[131.258071,-0.8825596],[131.2581261,-0.8825963],[131.2588629,-0.8813],[131.2589833,-0.8811913],[131.2593155,-0.8815063],[131.2598584,-0.8818373],[131.2605015,-0.8807038],[131.2597602,-0.8802805],[131.2597184,-0.8802566],[131.2602261,-0.8793809],[131.2599923,-0.8792412],[131.2603115,-0.8787073],[131.2600198,-0.8785357],[131.2595303,-0.8782477],[131.2590602,-0.8780044],[131.2586664,-0.878632],[131.2590115,-0.8789506],[131.2586694,-0.8795379],[131.2589073,-0.8802022],[131.2586592,-0.880618],[131.2587757,-0.8807717],[131.258823,-0.881008],[131.2579587,-0.8824847],[131.2580129,-0.8825227],[131.2576385,-0.8831801],[131.2574322,-0.883093],[131.2573782,-0.883185]]]}, "properties": {"osm_id": 569738957, "osm_type": "ways_poly", "military": "naval_base", "landuse": "military", "building": null, "name": "Navy", "amenity": null}},{"type": "Feature", "geometry": {"type":"Polygon","coordinates":[[[131.2858867,-0.8895613],[131.2859288,-0.8895889],[131.2859353,-0.889579],[131.2859676,-0.8896003],[131.2860501,-0.8894751],[131.286041,-0.8894691],[131.2860602,-0.88944],[131.2859803,-0.8893873],[131.2859567,-0.889423],[131.2859719,-0.889433],[131.2859442,-0.8894751],[131.2859323,-0.8894672],[131.2859056,-0.8895078],[131.285915,-0.8895183],[131.2858867,-0.8895613]]]}, "properties": {"osm_id": 508024057, "osm_type": "ways_poly", "military": "range", "landuse": "military", "building": "yes", "name": "Koramil", "amenity": null}},{"type": "Feature", "geometry": {"type":"Polygon","coordinates":[[[131.2462217,-0.8720919],[131.2463375,-0.8721365],[131.2463576,-0.8720842],[131.2462418,-0.8720396],[131.2462217,-0.8720919]]]}, "properties": {"osm_id": 507799161, "osm_type": "ways_poly", "military": null, "landuse": null, "building": "yes", "name": "Kantor Pomal", "amenity": "police"}},{"type": "Feature", "geometry": {"type":"Polygon","coordinates":[[[131.2525007,-0.8705244],[131.2525624,-0.8706183],[131.2526684,-0.8705486],[131.2526067,-0.8704547],[131.2525007,-0.8705244]]]}, "properties": {"osm_id": 507799374, "osm_type": "ways_poly", "military": null, "landuse": null, "building": "yes", "name": "Polsek Sorong Barat", "amenity": "police"}},{"type": "Feature", "geometry": {"type":"Polygon","coordinates":[[[131.2847787,-0.8838484],[131.2848374,-0.8838856],[131.2848884,-0.8838051],[131.2848296,-0.8837679],[131.2847787,-0.8838484]]]}, "properties": {"osm_id": 508001877, "osm_type": "ways_poly", "military": null, "landuse": null, "building": "yes", "name": "Polresta Sorong", "amenity": "police"}},{"type": "Feature", "geometry": {"type":"Polygon","coordinates":[[[131.333104,-0.9322364],[131.3331443,-0.9329096],[131.3333349,-0.9328982],[131.3332947,-0.932225],[131.333104,-0.9322364]]]}, "properties": {"osm_id": 530185573, "osm_type": "ways_poly", "military": "range", "landuse": null, "building": "yes", "name": "Kantor Marinir Yonmarhanlan Lantamal XIV", "amenity": null}},{"type": "Feature", "geometry": {"type":"Polygon","coordinates":[[[131.285166,-0.883785],[131.2852298,-0.8838182],[131.2852633,-0.8837539],[131.2851995,-0.8837206],[131.285166,-0.883785]]]}, "properties": {"osm_id": 508001876, "osm_type": "ways_poly", "military": null, "landuse": null, "building": "yes", "name": "Polresta Sorong", "amenity": "police"}},{"type": "Feature", "geometry": {"type":"Polygon","coordinates":[[[131.2852426,-0.8836951],[131.2853162,-0.8837448],[131.285386,-0.8836415],[131.2853123,-0.8835918],[131.2852426,-0.8836951]]]}, "properties": {"osm_id": 508001875, "osm_type": "ways_poly", "military": null, "landuse": null, "building": "yes", "name": "SPKT Polresta Sorong Kota", "amenity": "police"}},{"type": "Feature", "geometry": {"type":"Polygon","coordinates":[[[131.2846228,-0.8837628],[131.2846878,-0.8837997],[131.2847781,-0.8836407],[131.2848746,-0.8836956],[131.2848398,-0.8837569],[131.284907,-0.883795],[131.2849432,-0.8837312],[131.2850228,-0.8837764],[131.2849462,-0.8839112],[131.2850184,-0.8839523],[131.285152,-0.8837172],[131.2849966,-0.8836289],[131.2850198,-0.8835881],[131.2849526,-0.8835499],[131.2849227,-0.8836026],[131.2847648,-0.8835129],[131.2846228,-0.8837628]]]}, "properties": {"osm_id": 508001878, "osm_type": "ways_poly", "military": null, "landuse": null, "building": "yes", "name": "Polresta Sorong Kota", "amenity": "police"}},{"type": "Feature", "geometry": {"type":"Polygon","coordinates":[[[131.2861002,-0.8894437],[131.2861705,-0.8894932],[131.2862561,-0.8893717],[131.2861852,-0.8893218],[131.2861615,-0.8893555],[131.2861315,-0.8893343],[131.2861032,-0.8893744],[131.2861338,-0.889396],[131.2861002,-0.8894437]]]}, "properties": {"osm_id": 508024058, "osm_type": "ways_poly", "military": "range", "landuse": "military", "building": "yes", "name": "Koramil", "amenity": null}},{"type": "Feature", "geometry": {"type":"Polygon","coordinates":[[[131.2359368,-0.8887766],[131.2359689,-0.889004],[131.2360735,-0.8889892],[131.2360415,-0.8887618],[131.2359368,-0.8887766]]]}, "properties": {"osm_id": 506695720, "osm_type": "ways_poly", "military": null, "landuse": null, "building": "yes", "name": "Polsek Sorong Kepulauan", "amenity": "police"}},{"type": "Feature", "geometry": {"type":"Polygon","coordinates":[[[131.2426129,-0.8764278],[131.2426955,-0.8764578],[131.2427467,-0.8763172],[131.2426641,-0.8762872],[131.2426129,-0.8764278]]]}, "properties": {"osm_id": 507800174, "osm_type": "ways_poly", "military": null, "landuse": null, "building": "yes", "name": "Sat Polairud Polresta Sorong Kota", "amenity": "police"}},{"type": "Feature", "geometry": {"type":"Polygon","coordinates":[[[131.2361902,-0.8889731],[131.2362277,-0.8891153],[131.2364347,-0.8890606],[131.2363972,-0.8889185],[131.2361902,-0.8889731]]]}, "properties": {"osm_id": 506695719, "osm_type": "ways_poly", "military": null, "landuse": null, "building": "yes", "name": null, "amenity": "police"}},{"type": "Feature", "geometry": {"type":"Polygon","coordinates":[[[131.2462336,-0.8722502],[131.2462684,-0.8722632],[131.2462411,-0.872336],[131.2463378,-0.8723723],[131.2464022,-0.8722006],[131.2463055,-0.8721644],[131.2462978,-0.8721849],[131.246263,-0.8721718],[131.2462336,-0.8722502]]]}, "properties": {"osm_id": 507799160, "osm_type": "ways_poly", "military": null, "landuse": null, "building": "yes", "name": "Kantor Pomal", "amenity": "police"}},{"type": "Feature", "geometry": {"type":"Polygon","coordinates":[[[131.2476597,-0.872477],[131.2479521,-0.8725854],[131.2479963,-0.8724662],[131.2477904,-0.8723899],[131.2478573,-0.8722096],[131.2481311,-0.8723111],[131.2481769,-0.8721875],[131.2479024,-0.8720857],[131.2479623,-0.871924],[131.2482357,-0.8720254],[131.2482787,-0.8719096],[131.2479195,-0.8717764],[131.2476597,-0.872477]]]}, "properties": {"osm_id": 507799165, "osm_type": "ways_poly", "military": null, "landuse": null, "building": "yes", "name": "Kantor Angkatan Laut", "amenity": "police"}},{"type": "Feature", "geometry": {"type":"Polygon","coordinates":[[[131.2459762,-0.8726069],[131.2459941,-0.872679],[131.2460185,-0.8727195],[131.2460386,-0.8727403],[131.2460534,-0.8727537],[131.2462437,-0.872833],[131.24685,-0.8730647],[131.246955,-0.8723021],[131.2461556,-0.8719897],[131.246109,-0.8721375],[131.2460098,-0.8724567],[131.2459762,-0.8726069]]]}, "properties": {"osm_id": 570449215, "osm_type": "ways_poly", "military": null, "landuse": "military", "building": null, "name": "Polisi Militer", "amenity": null}},{"type": "Feature", "geometry": {"type":"Polygon","coordinates":[[[131.2870285,-0.879705],[131.2870902,-0.879752],[131.2871634,-0.8797739],[131.2873007,-0.8795051],[131.2871613,-0.8794339],[131.2871393,-0.8794768],[131.287206,-0.8795109],[131.2871164,-0.8796863],[131.2870543,-0.8796546],[131.2870285,-0.879705]]]}, "properties": {"osm_id": 506658735, "osm_type": "ways_poly", "military": null, "landuse": null, "building": "yes", "name": "Satuan Lalulintas Polresta Sorong Kota", "amenity": "police"}},{"type": "Feature", "geometry": {"type":"Polygon","coordinates":[[[131.2424282,-0.8408555],[131.2424306,-0.8409152],[131.2424815,-0.8409132],[131.2424886,-0.8410918],[131.242674,-0.8410845],[131.2426692,-0.8409637],[131.2425995,-0.8409665],[131.2425916,-0.8407687],[131.2426455,-0.8407666],[131.2426415,-0.8406664],[131.2424715,-0.8406732],[131.2424786,-0.8408535],[131.2424282,-0.8408555]]]}, "properties": {"osm_id": 506503925, "osm_type": "ways_poly", "military": null, "landuse": null, "building": "yes", "name": "Polairud", "amenity": "police"}},{"type": "Feature", "geometry": {"type":"Polygon","coordinates":[[[131.2426791,-0.8407015],[131.2426939,-0.8410448],[131.2427953,-0.8410404],[131.2427805,-0.8406971],[131.2426791,-0.8407015]]]}, "properties": {"osm_id": 506503924, "osm_type": "ways_poly", "military": null, "landuse": null, "building": "yes", "name": "Polairud", "amenity": "police"}},{"type": "Feature", "geometry": {"type":"Polygon","coordinates":[[[131.2559644,-0.8758179],[131.2559858,-0.8759145],[131.256406,-0.8758211],[131.2563846,-0.8757246],[131.2559644,-0.8758179]]]}, "properties": {"osm_id": 507800741, "osm_type": "ways_poly", "military": null, "landuse": null, "building": "yes", "name": "Polsek Sorong Kota", "amenity": "police"}},{"type": "Feature", "geometry": {"type":"Polygon","coordinates":[[[131.284754,-0.883365],[131.2848656,-0.8834377],[131.2849367,-0.8833224],[131.2848251,-0.8832483],[131.284754,-0.883365]]]}, "properties": {"osm_id": 508001889, "osm_type": "ways_poly", "military": null, "landuse": null, "building": "yes", "name": "Command Center Polresta Sorong Kota", "amenity": "police"}},{"type": "Feature", "geometry": {"type":"Polygon","coordinates":[[[131.2904369,-0.8883992],[131.2905083,-0.8884322],[131.2905548,-0.8883317],[131.2904834,-0.8882987],[131.2904369,-0.8883992]]]}, "properties": {"osm_id": 888185281, "osm_type": "ways_poly", "military": null, "landuse": null, "building": "yes", "name": "Polsek Kawasan Bandara Deo", "amenity": "police"}},{"type": "Feature", "geometry": {"type":"Polygon","coordinates":[[[131.3223266,-0.9015789],[131.3223684,-0.9016406],[131.3224307,-0.9015984],[131.3224745,-0.9016631],[131.3224216,-0.9016989],[131.3224584,-0.9017533],[131.3225086,-0.9017193],[131.3225694,-0.9016781],[131.3224586,-0.9015143],[131.3224475,-0.9015219],[131.3224359,-0.9015048],[131.3223266,-0.9015789]]]}, "properties": {"osm_id": 508854358, "osm_type": "ways_poly", "military": null, "landuse": null, "building": "yes", "name": "Polsek Sorong Timur", "amenity": "police"}},{"type": "Feature", "geometry": {"type":"Polygon","coordinates":[[[131.2638744,-0.8802874],[131.2641239,-0.8804028],[131.2640998,-0.8804644],[131.264661,-0.8806964],[131.2647401,-0.8804939],[131.2649614,-0.8805851],[131.2651559,-0.8801319],[131.2641319,-0.8797001],[131.2638744,-0.8802874]],[[131.2639202,-0.8802932],[131.2639524,-0.8802179],[131.2641375,-0.880297],[131.2641053,-0.8803723],[131.2639202,-0.8802932]],[[131.2641549,-0.8804326],[131.2641871,-0.8803361],[131.2642555,-0.8803589],[131.2642233,-0.8804554],[131.2641549,-0.8804326]],[[131.2641965,-0.8803146],[131.2642857,-0.8800954],[131.2642133,-0.880067],[131.2642434,-0.8799901],[131.2645261,-0.8801009],[131.2645385,-0.8800652],[131.2646007,-0.8800868],[131.2645874,-0.880125],[131.2647839,-0.880202],[131.264654,-0.8805175],[131.2645881,-0.8804876],[131.2646934,-0.8802552],[131.2643594,-0.8801243],[131.2642698,-0.8803445],[131.2641965,-0.8803146]],[[131.2642472,-0.8804835],[131.264285,-0.8804018],[131.264694,-0.8805909],[131.2646563,-0.8806726],[131.2642472,-0.8804835]],[[131.2647944,-0.8804959],[131.2648856,-0.8802519],[131.2650105,-0.8802985],[131.2649193,-0.8805426],[131.2647944,-0.8804959]],[[131.2649971,-0.8802154],[131.2650347,-0.880135],[131.2650914,-0.8801614],[131.2650538,-0.8802419],[131.2649971,-0.8802154]]]}, "properties": {"osm_id": 7625980, "osm_type": "relations", "military": "range", "landuse": "military", "building": null, "name": "Kodim 1704 Kota Sorong", "amenity": null}},{"type": "Feature", "geometry": {"type":"Polygon","coordinates":[[[131.2738033,-0.8880004],[131.2739365,-0.888151],[131.2741392,-0.8879719],[131.2740059,-0.8878212],[131.2738033,-0.8880004]],[[131.273834,-0.8879911],[131.2739224,-0.8879172],[131.2740217,-0.8880358],[131.2739332,-0.8881098],[131.273834,-0.8879911]],[[131.2739287,-0.8879059],[131.274006,-0.8878418],[131.2741144,-0.8879726],[131.274037,-0.8880367],[131.2739287,-0.8879059]]]}, "properties": {"osm_id": 7626182, "osm_type": "relations", "military": "range", "landuse": "military", "building": null, "name": "Kantor Veteran TNI AD", "amenity": null}},{"type": "Feature", "geometry": {"type":"Polygon","coordinates":[[[131.3160367,-0.8928864],[131.3166446,-0.8937932],[131.3169173,-0.8942],[131.3174623,-0.8938348],[131.3165817,-0.8925211],[131.3160367,-0.8928864]],[[131.316084,-0.892955],[131.316171,-0.8928934],[131.3162313,-0.8929785],[131.3161444,-0.8930401],[131.316084,-0.892955]],[[131.3161864,-0.8928987],[131.3164754,-0.8927076],[131.3165295,-0.8927894],[131.3162405,-0.8929805],[131.3161864,-0.8928987]],[[131.3162249,-0.8929986],[131.3163024,-0.8929443],[131.3164312,-0.893128],[131.3163537,-0.8931823],[131.3162249,-0.8929986]],[[131.3163507,-0.8932165],[131.3164634,-0.8931408],[131.3165316,-0.8932422],[131.3164189,-0.8933179],[131.3163507,-0.8932165]],[[131.3163782,-0.8933493],[131.3164777,-0.8932856],[131.3165589,-0.8934123],[131.3164593,-0.893476],[131.3163782,-0.8933493]],[[131.3164821,-0.8931307],[131.3166042,-0.8930549],[131.3166745,-0.8931682],[131.3165525,-0.893244],[131.3164821,-0.8931307]],[[131.3164962,-0.8932936],[131.3166578,-0.8931857],[131.3167258,-0.8932874],[131.3165642,-0.8933953],[131.3164962,-0.8932936]],[[131.3166115,-0.8936926],[131.3167168,-0.8936262],[131.3167901,-0.8937424],[131.3166849,-0.8938088],[131.3166115,-0.8936926]],[[131.3166504,-0.8934948],[131.3167047,-0.8934599],[131.3167455,-0.8935235],[131.3166912,-0.8935583],[131.3166504,-0.8934948]],[[131.3167074,-0.8938092],[131.3168208,-0.8937388],[131.3168622,-0.8938056],[131.3167489,-0.893876],[131.3167074,-0.8938092]],[[131.3167262,-0.893472],[131.3168161,-0.8934172],[131.3168832,-0.8935271],[131.3167933,-0.8935819],[131.3167262,-0.893472]],[[131.3167771,-0.8939252],[131.3172103,-0.8936369],[131.3172664,-0.8937211],[131.3168332,-0.8940094],[131.3167771,-0.8939252]],[[131.316808,-0.8933332],[131.3169478,-0.893242],[131.3169864,-0.8933011],[131.3168466,-0.8933923],[131.316808,-0.8933332]],[[131.3168214,-0.8934123],[131.3169836,-0.8933061],[131.3170473,-0.8934033],[131.3168851,-0.8935095],[131.3168214,-0.8934123]],[[131.3168349,-0.8940672],[131.316903,-0.8940193],[131.316986,-0.8941372],[131.3169178,-0.8941852],[131.3168349,-0.8940672]],[[131.3169636,-0.8940248],[131.3170024,-0.8940012],[131.3170383,-0.8940602],[131.3169995,-0.8940838],[131.3169636,-0.8940248]],[[131.3170119,-0.8939782],[131.3171319,-0.8939004],[131.3171833,-0.8939797],[131.3170632,-0.8940574],[131.3170119,-0.8939782]],[[131.3171466,-0.8939011],[131.3171985,-0.8938704],[131.3172306,-0.8939247],[131.3171788,-0.8939554],[131.3171466,-0.8939011]],[[131.3171765,-0.8938075],[131.317284,-0.8937295],[131.3173501,-0.8938206],[131.3172426,-0.8938986],[131.3171765,-0.8938075]]]}, "properties": {"osm_id": 7628750, "osm_type": "relations", "military": "range", "landuse": "military", "building": null, "name": "Batalion Yonif 752 TNI AD", "amenity": null}}]}